OBJECT_NAME,OBJECT_ID,EPOCH,MEAN_MOTION,ECCENTRICITY,INCLINATION,RA_OF_ASC_NODE,ARG_OF_PERICENTER,MEAN_ANOMALY,EPHEMERIS_TYPE,CLASSIFICATION_TYPE,NORAD_CAT_ID,ELEMENT_SET_NO,REV_AT_EPOCH,BSTAR,MEAN_MOTION_DOT,MEAN_MOTION_DDOT
SHIJIAN-17 (SJ-17),2016-065A,2026-07-10T17:58:52.606272,0.99863738,.0001858,5.8097,72.3186,46.8006,280.0696,0,U,41838,999,3543,0,.102E-5,0
GOES 16,2016-071A,2026-07-10T16:31:48.476064,1.00270916,.0000526,0.3917,85.5262,94.9282,251.4180,0,U,41866,999,3533,0,-.82E-6,0
TIANLIAN 1-04,2016-072A,2026-07-10T19:34:38.769600,1.00270449,.0043857,0.9275,82.7721,90.1510,226.2706,0,U,41869,999,3553,0,.38E-6,0
WGS F8 (USA 272),2016-075A,2026-07-10T13:47:38.685120,1.00271395,.0000229,0.0176,41.0118,322.7975,281.4197,0,U,41879,999,3505,0,-.193E-5,0
FENGYUN 4A,2016-077A,2026-07-10T21:02:14.073792,1.00270665,.0008429,2.3789,80.0254,158.7929,129.3136,0,U,41882,999,3516,0,-.351E-5,0
ECHOSTAR 19,2016-079A,2026-07-10T14:58:26.895360,1.00269731,.0001189,0.0175,43.4638,67.3182,305.2701,0,U,41893,999,3493,0,-.129E-5,0
JCSAT-110A (JCSAT-15),2016-082A,2026-07-10T17:33:02.583360,1.00270832,.0000607,0.0182,33.3722,116.0357,152.5686,0,U,41903,999,3499,0,-.342E-5,0
STAR ONE D1,2016-082B,2026-07-10T13:12:23.976000,1.00266994,.0002328,0.0321,58.1803,69.7049,274.7202,0,U,41904,999,3500,0,0,0
TJS-2,2017-001A,2026-07-10T20:45:53.140032,1.00269796,.0000794,0.8913,85.0111,108.4782,113.3151,0,U,41911,999,3495,0,.2E-7,0
SBIRS GEO-4 (USA 273),2017-004A,2026-07-10T20:39:38.577024,1.00283124,.0002569,2.2866,43.8682,66.4063,149.9058,0,U,41937,999,3483,0,.133E-5,0
HISPASAT 36W-1,2017-006A,2026-07-10T01:27:32.480640,1.00271483,.00010506,0.0095,294.2767,174.9748,164.6328,0,U,41942,999,3447,0,-.233E-5,0
TELKOM 3S,2017-007A,2026-07-10T21:00:36.727776,1.00272622,.0002022,0.0176,53.4953,52.8778,255.5670,0,U,41944,999,3437,0,-.354E-5,0
INTELSAT 32E (IS-32E),2017-007B,2026-07-10T03:08:08.520288,1.00267562,.00003413,0.0258,33.0821,235.9737,22.8541,0,U,41945,999,3445,0,0,0
ECHOSTAR 23,2017-014A,2026-07-10T14:47:40.993152,1.00270142,.0001954,0.0038,112.4895,355.8260,292.2439,0,U,42070,999,3415,0,-.47E-6,0
WGS F9 (USA 275),2017-016A,2026-07-10T01:34:16.835232,1.00270853,.00004344,0.0211,10.1501,213.9350,75.4855,0,U,42075,999,3412,0,0,0
SES-10,2017-017A,2026-07-09T16:09:20.270592,1.00272604,.00025351,0.0175,43.5004,74.3522,345.1935,0,U,42432,999,3398,0,-.26E-5,0
CHINASAT 16 (SJ-13),2017-018A,2026-07-10T07:17:13.773696,1.00269850,.00048271,0.0919,88.9552,133.8984,285.2198,0,U,42662,999,3398,0,-.341E-5,0
KOREASAT 7,2017-023A,2026-07-10T20:59:59.288064,1.00273387,.0000921,0.0190,43.7771,97.6757,218.2191,0,U,42691,999,3360,0,-.353E-5,0
SGDC,2017-023B,2026-07-09T09:50:06.627552,1.00270363,.00023597,0.0136,28.9127,88.7989,242.3140,0,U,42692,999,3362,0,-.236E-5,0
GSAT-9,2017-024A,2026-07-10T20:54:44.791200,1.00269330,.0002292,0.0762,91.7678,27.7801,220.2270,0,U,42695,999,3353,0,-.277E-5,0
INMARSAT 5-F4,2017-025A,2026-07-09T23:49:38.606880,1.00270257,.00005995,0.0285,39.4093,170.9993,131.4380,0,U,42698,999,3350,0,0,0
SES-15,2017-026A,2026-07-10T16:24:49.144896,1.00266789,.000031,0.0246,328.6287,127.6738,309.3350,0,U,42709,999,766,0,.7E-6,0
QZS-2 (MICHIBIKI-2),2017-028A,2026-07-10T10:56:38.728320,1.00277951,.07579699,39.3930,242.8106,269.5457,82.5332,0,U,42738,999,786,0,-.91E-6,0
VIASAT-2,2017-029A,2026-07-10T07:15:38.636064,1.00270730,.00001745,0.0202,302.3496,272.7054,112.2079,0,U,42740,999,3343,0,-.255E-5,0
EUTELSAT 172B,2017-029B,2026-07-10T04:09:25.146144,1.00271569,.00001372,0.0303,125.2258,110.2477,286.9866,0,U,42741,999,3397,0,.5E-7,0
GSAT-19,2017-031A,2026-07-10T20:40:38.643168,1.00272934,.0006292,0.0277,86.6772,359.2015,200.9518,0,U,42747,999,3338,0,.134E-5,0
ECHOSTAR 21,2017-032A,2026-07-10T20:47:38.757120,1.00272188,.000202,1.7700,357.2065,107.1868,146.5584,0,U,42749,999,3333,0,.75E-6,0
BULGARIASAT-1,2017-038A,2026-07-10T15:19:30.440928,1.00273058,.0003166,0.0108,314.4739,160.5195,45.3443,0,U,42801,999,3308,0,.21E-6,0
HELLAS-SAT 3,2017-040A,2026-07-10T20:38:01.395168,1.00269072,.0003279,0.0407,38.7774,35.6044,202.9026,0,U,42814,999,3304,0,.161E-5,0
GSAT-17,2017-040B,2026-07-10T21:12:38.637792,1.00271888,.0002109,0.0608,88.5923,169.4320,82.4280,0,U,42815,999,3302,0,-.249E-5,0
INTELSAT 35E (IS-35E),2017-041A,2026-07-10T18:34:26.695776,1.00270413,.0001606,0.0030,99.0225,10.1934,63.5968,0,U,42818,999,3305,0,-.229E-5,0
COSMOS 2520,2017-046A,2026-07-10T10:23:52.689408,1.00271858,.00004678,0.0364,105.7305,12.6569,10.9309,0,U,42907,999,3263,0,.147E-5,0
