SHIJIAN-17 (SJ-17)      
1 41838U 16065A   26191.74921998  .00000102  00000+0  00000+0 0  9991
2 41838   5.8097  72.3186 0001858  46.8006 280.0696  0.99863738 35437
GOES 16                 
1 41866U 16071A   26191.68875551 -.00000082  00000+0  00000+0 0  9993
2 41866   0.3917  85.5262 0000526  94.9282 251.4180  1.00270916 35333
TIANLIAN 1-04           
1 41869U 16072A   26191.81572650  .00000038  00000+0  00000+0 0  9996
2 41869   0.9275  82.7721 0043857  90.1510 226.2706  1.00270449 35531
WGS F8 (USA 272)        
1 41879U 16075A   26191.57475330 -.00000193  00000+0  00000+0 0  9993
2 41879   0.0176  41.0118 0000229 322.7975 281.4197  1.00271395 35051
FENGYUN 4A              
1 41882U 16077A   26191.87655178 -.00000351  00000+0  00000+0 0  9998
2 41882   2.3789  80.0254 0008429 158.7929 129.3136  1.00270665 35164
ECHOSTAR 19             
1 41893U 16079A   26191.62392240 -.00000129  00000+0  00000+0 0  9996
2 41893   0.0175  43.4638 0001189  67.3182 305.2701  1.00269731 34930
JCSAT-110A (JCSAT-15)   
1 41903U 16082A   26191.73127990 -.00000342  00000+0  00000+0 0  9999
2 41903   0.0182  33.3722 0000607 116.0357 152.5686  1.00270832 34997
STAR ONE D1             
1 41904U 16082B   26191.55027750  .00000000  00000+0  00000+0 0  9993
2 41904   0.0321  58.1803 0002328  69.7049 274.7202  1.00266994 35000
TJS-2                   
1 41911U 17001A   26191.86519838  .00000002  00000+0  00000+0 0  9992
2 41911   0.8913  85.0111 0000794 108.4782 113.3151  1.00269796 34951
SBIRS GEO-4 (USA 273)   
1 41937U 17004A   26191.86086316  .00000133  00000+0  00000+0 0  9998
2 41937   2.2866  43.8682 0002569  66.4063 149.9058  1.00283124 34833
HISPASAT 36W-1          
1 41942U 17006A   26191.06079260 -.00000233  00000+0  00000+0 0  9990
2 41942   0.0095 294.2767 0001050 174.9748 164.6328  1.00271483 34473
TELKOM 3S               
1 41944U 17007A   26191.87542509 -.00000354  00000+0  00000+0 0  9997
2 41944   0.0176  53.4953 0002022  52.8778 255.5670  1.00272622 34379
INTELSAT 32E (IS-32E)   
1 41945U 17007B   26191.13065417  .00000000  00000+0  00000+0 0  9992
2 41945   0.0258  33.0821 0000341 235.9737  22.8541  1.00267562 34458
ECHOSTAR 23             
1 42070U 17014A   26191.61644668 -.00000047  00000+0  00000+0 0  9996
2 42070   0.0038 112.4895 0001954 355.8260 292.2439  1.00270142 34155
WGS F9 (USA 275)        
1 42075U 17016A   26191.06547263  .00000000  00000+0  00000+0 0  9993
2 42075   0.0211  10.1501 0000434 213.9350  75.4855  1.00270853 34126
SES-10                  
1 42432U 17017A   26190.67315128 -.00000260  00000+0  00000+0 0  9999
2 42432   0.0175  43.5004 0002535  74.3522 345.1935  1.00272604 33989
CHINASAT 16 (SJ-13)     
1 42662U 17018A   26191.30363164 -.00000341  00000+0  00000+0 0  9999
2 42662   0.0919  88.9552 0004827 133.8984 285.2198  1.00269850 33984
KOREASAT 7              
1 42691U 17023A   26191.87499176 -.00000353  00000+0  00000+0 0  9995
2 42691   0.0190  43.7771 0000921  97.6757 218.2191  1.00273387 33603
SGDC                    
1 42692U 17023B   26190.40979893 -.00000236  00000+0  00000+0 0  9993
2 42692   0.0136  28.9127 0002359  88.7989 242.3140  1.00270363 33624
GSAT-9                  
1 42695U 17024A   26191.87135175 -.00000277  00000+0  00000+0 0  9991
2 42695   0.0762  91.7678 0002292  27.7801 220.2270  1.00269330 33534
INMARSAT 5-F4           
1 42698U 17025A   26190.99280795  .00000000  00000+0  00000+0 0  9999
2 42698   0.0285  39.4093 0000599 170.9993 131.4380  1.00270257 33500
SES-15                  
1 42709U 17026A   26191.68390214  .00000070  00000+0  00000+0 0  9995
2 42709   0.0246 328.6287 0000310 127.6738 309.3350  1.00266789  7661
QZS-2 (MICHIBIKI-2)     
1 42738U 17028A   26191.45600380 -.00000091  00000+0  00000+0 0  9996
2 42738  39.3930 242.8106 0757969 269.5457  82.5332  1.00277951  7863
VIASAT-2                
1 42740U 17029A   26191.30253051 -.00000255  00000+0  00000+0 0  9995
2 42740   0.0202 302.3496 0000174 272.7054 112.2079  1.00270730 33434
EUTELSAT 172B           
1 42741U 17029B   26191.17320771  .00000005  00000+0  00000+0 0  9997
2 42741   0.0303 125.2258 0000137 110.2477 286.9866  1.00271569 33972
GSAT-19                 
1 42747U 17031A   26191.86155837  .00000134  00000+0  00000+0 0  9994
2 42747   0.0277  86.6772 0006292 359.2015 200.9518  1.00272934 33382
ECHOSTAR 21             
1 42749U 17032A   26191.86642080  .00000075  00000+0  00000+0 0  9992
2 42749   1.7700 357.2065 0002020 107.1868 146.5584  1.00272188 33330
BULGARIASAT-1           
1 42801U 17038A   26191.63854677  .00000021  00000+0  00000+0 0  9990
2 42801   0.0108 314.4739 0003166 160.5195  45.3443  1.00273058 33083
HELLAS-SAT 3            
1 42814U 17040A   26191.85973837  .00000161  00000+0  00000+0 0  9996
2 42814   0.0407  38.7774 0003279  35.6044 202.9026  1.00269072 33049
GSAT-17                 
1 42815U 17040B   26191.88378053 -.00000249  00000+0  00000+0 0  9997
2 42815   0.0608  88.5923 0002109 169.4320  82.4280  1.00271888 33025
INTELSAT 35E (IS-35E)   
1 42818U 17041A   26191.77392009 -.00000229  00000+0  00000+0 0  9994
2 42818   0.0030  99.0225 0001606  10.1934  63.5968  1.00270413 33052
COSMOS 2520             
1 42907U 17046A   26191.43324872  .00000147  00000+0  00000+0 0  9992
2 42907   0.0364 105.7305 0000467  12.6569  10.9309  1.00271858 32632
